[
    {
        "Altitude(m)": 607897.6305931336,
        "Argument of Periapsis(deg)": 0.0,
        "Eccentricity": 0.0,
        "Inclination(deg)": 60.0,
        "Latitude(deg)": -14.293024494607108,
        "Longitude(deg)": -13.381217269335766,
        "Mean Anomaly(deg)": -16.363600000000048,
        "RAAN(deg)": 95.0,
        "Satellite Name": "Test1 439",
        "Satellite Number": 439,
        "Semi-Major Axis(m)": 6980739.136638005,
        "Time(s)": 0
    },
    {
        "Altitude(m)": 607750.8312355938,
        "Argument of Periapsis(deg)": 0.00010418945913296404,
        "Eccentricity": 0.0,
        "Inclination(deg)": 60.0,
        "Latitude(deg)": -13.75886534904229,
        "Longitude(deg)": -13.094149307668786,
        "Mean Anomaly(deg)": -15.743493854538157,
        "RAAN(deg)": 94.99957995086027,
        "Satellite Name": "Test1 439",
        "Satellite Number": 439,
        "Semi-Major Axis(m)": 6980739.136638005,
        "Time(s)": 10
    }
]